C/2019 U5 (PANSTARRS),h,03/29.8970/2023,113.5212,2.6371,181.5071,1.001470,3.624082,2000,4.5,4.0
# From MPEC 2022-H04
C/2019 U6 (Lemmon),e,60.9876,235.7368,329.6102,355.1480,0.0001473,0.99742628,0.0000,06/18.5463/2020,2000,g 10.0,4.0
# From MPEC 2022-N37
C/2019 V1 (Borisov),e,61.8894,83.1762,51.1677,1498,0.0000170,0.99793301,0.0000,07/16.3739/2020,2000,g 11.0,4.0
# From MPEC 2022-L66
P/2019 V2 (Groeller),e,11.8082,189.1848,335.8308,7.502696,0.0479599,0.33114917,34.8636,10/15.0/2022,2000,g 10.0,4.0
# From MPC119998
P/2019 W1 (PANSTARRS),e,23.4728,35.3776,18.6985,4.549368,0.1015728,0.26691641,127.5273,10/15.0/2022,2000,g 12.9,4.0
# From MPEC 2021-P47
P/2019 X1 (Pruyne),e,10.2490,43.6680,36.7868,6.173417,0.0642563,0.30341019,75.9142,10/15.0/2022,2000,g 10.4,4.0
# From MPC119999
C/2019 Y1 (ATLAS),e,73.3411,31.5481,57.9293,86.06815,0.0012344,0.99035675,0.0000,03/15.7973/2020,2000,g 13.7,4.0
# From MPEC 2022-O08
C/2019 Y4 (ATLAS),e,45.2926,120.6197,177.4531,351.0568,0.0001498,0.99927541,0.0000,05/30.9832/2020,2000,g 11.8,6.0
# From MPEC 2020-L06
C/2019 Y4-A (ATLAS),h,05/31.0080/2020,45.7378,120.9808,177.2862,1.001416,0.252519,2000,11.6,6.0
# From MPEC 2020-L06
C/2019 Y4-B (ATLAS),e,45.3730,120.6760,177.4191,1505,0.0000169,0.99983118,0.0000,05/30.9853/2020,2000,g 12.8,6.0
# From MPEC 2020-L06
C/2019 Y4-C (ATLAS),h,05/30.9639/2020,45.5200,120.7071,177.3197,1.002138,0.253581,2000,12.7,6.0
# From MPEC 2020-L06
C/2019 Y4-D (ATLAS),e,45.5631,121.0844,177.4574,68.43964,0.0017408,0.99630427,0.0000,05/31.0865/2020,2000,g 12.5,6.0
# From MPEC 2021-P47
C/2019 Y5 (PANSTARRS),e,82.7794,51.7644,303.5388,782.9649,0.0000450,0.99371949,0.0000,08/18.1350/2019,2000,g 11.0,4.0
# From MPEC 2022-O08
A/2020 A1,e,149.0401,119.2349,302.5606,25.72389,0.0075544,0.93519102,7.9124,10/15.0/2022,2000,g 18.0,2.0
# From MPEC 2020-L06
C/2020 A2 (Iwamoto),e,120.6756,286.3349,68.1290,1282,0.0000215,0.99923916,0.0000,01/08.5569/2020,2000,g 13.5,4.0
# From MPEC 2022-N37
C/2020 A3 (ATLAS),h,06/29.3886/2019,146.6828,120.8010,268.4096,1.001144,5.763369,2000,8.0,4.0
# From MPEC 2022-P91
P/2020 A4 (PANSTARRS-Lemmon),e,24.9902,312.4035,144.7641,8.193886,0.0420213,0.65376376,44.4303,10/15.0/2022,2000,g 15.0,4.0
# From MPEC 2020-N08
A/2020 B1,e,18.5153,309.9916,154.7121,51.35043,0.0026785,0.96606073,2.7425,10/15.0/2022,2000,g 21.0,2.0
# From MPEC 2022-N37
C/2020 B3 (Rankin),e,20.7099,185.8500,324.9512,984.5746,0.0000319,0.99660813,0.0000,10/19.3947/2019,2000,g 13.0,4.0
# From MPEC 2022-H04
P/2020 B4 (Sheppard),e,11.6093,185.9793,342.1657,7.966659,0.0438318,0.19170018,14.3915,10/15.0/2022,2000,g 10.5,4.0
# From MPEC 2022-R68
C/2020 F2 (ATLAS),h,07/15.4588/2022,163.5863,250.2785,48.3479,1.005343,8.817049,2000,4.5,4.0
# From MPEC 2021-O56
C/2020 F3 (NEOWISE),e,129.0554,61.0519,37.3361,347.9256,0.0001519,0.99915069,0.0000,07/03.6294/2020,2000,g  7.5,5.2
# From MPEC 2022-TA0
C/2020 F5 (MASTER),e,52.2295,350.5137,310.6906,192.1903,0.0003699,0.97750579,0.0000,03/18.2084/2021,2000,g  6.5,3.2
# From MPEC 2020-L06
C/2020 F6 (PANSTARRS),e,174.5830,207.9080,344.5938,411.5023,0.0001181,0.99147468,0.0000,04/11.7680/2020,2000,g 14.5,2.8
# From MPEC 2022-L66
C/2020 F7 (Lemmon),e,93.9505,321.8792,227.9547,616.1415,0.0000644,0.99134612,0.0000,11/13.8389/2021,2000,g  7.0,4.0
# From MPEC 2020-KB7
C/2020 F8 (SWAN),e,110.6904,259.9166,68.1490,260.8563,0.0002339,0.99835345,0.0000,05/27.5028/2020,2000,g 10.0,4.0
# From MPEC 2020-L06
P/2020 G1 (Pimentel),e,18.5001,240.1130,207.6100,3.608715,0.1437723,0.86018296,135.3717,10/15.0/2022,2000,g 17.0,4.0
# From MPEC 2020-L06
C/2020 H2 (Pruyne),e,124.9616,277.6593,26.6899,192.4133,0.0003693,0.99567405,0.0000,04/27.7882/2020,2000,g 18.0,4.0
# From MPEC 2020-HM1
C/2020 H3 (Wierzchos),p,06/05.7162/2020,62.5292,30.4456,2.300288,270.6227,2000,13.5,4.0
# From MPEC 2020-L06
C/2020 H4 (Leonard),e,84.5035,307.6932,117.5538,47.91480,0.0029717,0.98069102,0.0000,08/29.6112/2020,2000,g 15.0,3.2
# From MPEC 2022-N37
C/2020 H5 (Robinson),e,70.2497,210.6274,326.3678,3611,0.0000045,0.99741243,0.0000,12/11.2755/2020,2000,g  5.0,4.0
# From MPEC 2022-TA0
C/2020 H6 (ATLAS),h,09/30.9167/2021,79.9767,213.7156,20.3286,1.000062,4.702600,2000,8.0,3.2
# From MPEC 2020-KB7
C/2020 H7 (Lemmon),e,135.9235,323.5194,82.6780,1405,0.0000187,0.99685380,0.0000,06/02.9510/2020,2000,g 11.0,4.0
# From MPEC 2021-N06
C/2020 H8 (PANSTARRS),e,99.6744,68.4173,128.9475,593.6554,0.0000681,0.99212374,0.0000,06/04.4954/2020,2000,g 10.5,4.0
# From MPEC 2022-ED3
A/2020 H9,e,137.8767,213.1712,312.8599,371.9897,0.0001374,0.99307404,0.0000,12/21.4701/2019,2000,g 18.0,2.0
# From MPEC 2022-S20
C/2020 J1 (SONEAR),h,04/18.6536/2021,142.3031,226.5955,341.7605,1.000783,3.354651,2000,8.5,3.2
# From MPEC 2022-TA0
C/2020 K1 (PANSTARRS),e,89.6660,94.3549,213.9811,192589,0.0000000,0.99998404,0.0000,05/09.0684/2023,2000,g  5.5,4.0
# From MPEC 2021-N06
C/2020 K2 (PANSTARRS),h,08/06.2796/2020,91.0341,288.3769,67.3458,1.003870,8.879625,2000,10.8,4.0
# From MPEC 2020-KF9
C/2020 K3 (Leonard),p,06/01.0032/2020,129.0152,64.4924,1.583069,28.3546,2000,14.5,4.0
# From MPEC 2020-L06
C/2020 K4 (PANSTARRS),e,125.5791,264.1590,308.8468,23.94386,0.0084123,0.92672877,8.0354,10/15.0/2022,2000,g 16.5,4.0
# From MPEC 2021-R75
C/2020 K5 (PANSTARRS),h,06/05.5469/2021,67.1333,86.1660,249.6028,1.001457,1.536188,2000,11.0,4.0
# From MPEC 2022-PB4
C/2020 K6 (Rankin),h,09/15.7920/2021,103.6492,291.5400,44.3301,1.003579,5.868769,2000,8.0,4.0
# From MPEC 2022-L66
C/2020 K7 (PANSTARRS),e,32.0401,286.0702,358.2635,99.84409,0.0009879,0.93597791,1.0693,10/15.0/2022,2000,g  8.0,4.0
# From MPEC 2021-P47
C/2020 K8 (Catalina-ATLAS),h,09/14.6768/2020,31.4299,181.5469,259.9700,1.000159,0.472811,2000,15.0,3.2
# From MPEC 2021-BE3
P/2020 K9 (Lemmon-PANSTARRS),e,23.2096,166.2402,197.0011,4.201407,0.1144490,0.32139461,69.7836,10/15.0/2022,2000,g 12.5,4.0
# From MPEC 2021-U31
P/2020 M1 (PANSTARRS),e,8.5518,142.6804,72.5678,5.316216,0.0804082,0.47509161,82.1868,10/15.0/2022,2000,g 14.5,4.0
# From MPEC 2022-H30
C/2020 M3 (ATLAS),e,23.4738,71.1899,328.5137,27.02458,0.0070156,0.95307933,5.0457,10/15.0/2022,2000,g 14.5,4.0
# From MPEC 2022-OB6
A/2020 M4,h,11/24.2289/2020,160.1274,348.6214,104.6521,1.000810,5.952167,2000,14.5,2.0
# From MPEC 2022-S20
C/2020 M5 (ATLAS),h,08/19.8660/2021,93.2243,352.0934,126.3233,1.000398,3.003755,2000,9.0,4.0
# From MPEC 2022-GA9
C/2020 N1 (PANSTARRS),h,03/12.2553/2021,29.7131,279.9504,186.7556,1.000436,1.319428,2000,12.5,4.0
# From MPEC 2021-P47
C/2020 N2 (ATLAS),e,161.0350,257.1309,331.3040,104.0754,0.0009283,0.98276265,0.0000,08/23.9158/2020,2000,g 16.0,3.2
# From MPEC 2022-PB4
P/2020 O1 (Lemmon-PANSTARRS),e,5.2256,175.9750,104.5448,2.645226,0.2290920,0.11904197,205.2031,10/15.0/2022,2000,g 15.5,4.0
# From MPEC 2022-TA0
C/2020 O2 (Amaral),h,08/28.6422/2021,71.7566,256.7638,10.3153,1.002017,4.862517,2000,8.0,3.2
# From MPEC 2020-SI8
P/2020 O3 (PANSTARRS),e,8.4435,266.8198,81.5671,4.648725,0.0983339,0.10344762,61.2774,10/15.0/2022,2000,g 12.0,4.0
# From MPEC 2021-BE3
C/2020 P1 (NEOWISE),h,10/20.2995/2020,45.1379,53.4979,8.8872,1.000289,0.341284,2000,14.0,3.2
# From MPEC 2022-O01
C/2020 P3 (ATLAS),h,04/21.0503/2021,61.8887,19.4668,82.2608,1.000674,6.812369,2000,6.0,4.0
# From MPEC 2022-PB4
C/2020 PV6 (PANSTARRS),e,128.2358,329.1471,71.3930,42.01132,0.0036195,0.94535765,1.3897,10/15.0/2022,2000,g 10.0,4.0
# From MPEC 2022-L66
C/2020 Q1 (Borisov),e,142.9302,52.4026,9.9364,60.70027,0.0020841,0.97831212,0.0000,08/14.4785/2020,2000,g 14.0,4.0
# From MPEC 2022-C56
C/2020 R2 (PANSTARRS),e,53.2282,195.0932,211.7668,404.9064,0.0001210,0.98841170,0.0000,02/24.7205/2022,2000,g  9.0,4.0
# From MPEC 2022-K19
C/2020 R4 (ATLAS),e,164.4588,323.2744,46.7125,99.68219,0.0009903,0.98968664,0.0000,03/02.0547/2021,2000,g 13.5,4.0
# From MPEC 2020-W26
P/2020 R5 (PANSTARRS),e,11.4481,272.9754,82.5438,4.985580,0.0885382,0.31467217,76.9118,10/15.0/2022,2000,g  9.5,6.0
# From MPEC 2021-Y10
C/2020 R6 (Rankin),e,82.8106,12.1774,271.9939,329.7319,0.0001646,0.99049956,0.0000,09/09.0256/2019,2000,g 11.0,4.0
# From MPEC 2022-TA0
C/2020 R7 (ATLAS),h,09/16.2401/2022,114.8915,268.2817,347.8383,1.000175,2.955983,2000,7.0,3.2
# From MPEC 2021-BE3
P/2020 S1 (PANSTARRS),e,13.7312,129.4632,254.9776,5.989837,0.0672329,0.50769843,42.7341,10/15.0/2022,2000,g 14.0,4.0
# From MPEC 2022-ST7
C/2020 S2 (PANSTARRS),e,22.4033,197.6642,202.3199,10.21249,0.0302000,0.82801821,19.9893,10/15.0/2022,2000,g 17.0,4.0
# From MPEC 2022-C56
C/2020 S3 (Erasmus),e,20.0044,222.6241,350.0865,159.8036,0.0004879,0.99752103,0.0000,12/12.3683/2020,2000,g 13.5,3.2
# From MPEC 2022-TA0
C/2020 S4 (PANSTARRS),h,02/09.2509/2023,20.5711,117.7231,20.9928,1.000960,3.369697,2000,8.5,3.2
# From MPEC 2021-BE3
P/2020 S5 (PANSTARRS),e,12.3506,316.0027,53.1690,4.053124,0.1207868,0.33859676,96.2693,10/15.0/2022,2000,g 14.5,4.0
# From MPEC 2022-T74
P/2020 S6 (Leonard),e,15.4622,242.5379,176.6797,3.599782,0.1443078,0.47948255,99.6004,10/15.0/2022,2000,g 16.0,4.0
# From MPEC 2021-BE3
P/2020 S7 (PANSTARRS),e,16.0903,328.0244,40.5359,5.028673,0.0874025,0.41074851,60.7781,10/15.0/2022,2000,g 14.5,4.0
# From MPEC 2021-P47
C/2020 S8 (Lemmon),e,108.5272,24.0648,160.3066,269.9156,0.0002223,0.99124626,0.0000,04/10.8776/2021,2000,g 12.5,4.0
# From MPEC 2022-ST7
C/2020 T2 (Palomar),e,27.8577,82.9954,150.4915,321.9764,0.0001706,0.99361281,0.0000,07/11.1798/2021,2000,g 11.0,3.2
# From MPEC 2021-N06
P/2020 T3 (PANSTARRS),e,7.2974,73.9954,357.0351,3.517129,0.1494244,0.59191068,94.4948,10/15.0/2022,2000,g 18.0,3.2
# From MPEC 2021-N06
C/2020 T4 (PANSTARRS),h,07/05.2769/2021,83.8288,50.6140,79.6100,1.000136,2.191792,2000,13.0,3.2
# From MPEC 2021-BE3
C/2020 T5 (Lemmon),e,66.5721,237.8505,90.3220,788.9525,0.0000445,0.99760401,0.0000,10/09.5034/2020,2000,g 16.0,4.0
# From MPEC 2021-N06
P/2020 U2 (PANSTARRS),e,6.4205,342.8951,84.6341,3.778029,0.1342166,0.51095139,88.3333,10/15.0/2022,2000,g 18.0,4.0
# From MPEC 2021-W31
